[{"OBJECT_NAME":"STARLINK-1048","OBJECT_ID":"2019-074AS","EPOCH":"2026-03-09T12:30:43.141824","MEAN_MOTION":15.53328855,"ECCENTRICITY":1.717e-5,"INCLINATION":53.052,"RA_OF_ASC_NODE":169.6561,"ARG_OF_PERICENTER":86.0579,"MEAN_ANOMALY":274.045,"EPHEMERIS_TYPE":0,"CLASSIFICATION_TYPE":"U","NORAD_CAT_ID":44753,"ELEMENT_SET_NO":999,"REV_AT_EPOCH":34897,"BSTAR":0.0013672925,"MEAN_MOTION_DOT":0.00088315,"MEAN_MOTION_DDOT":0},{"OBJECT_NAME":"FREGAT DEB","OBJECT_ID":"2011-037BP","EPOCH":"2026-03-09T06:46:06.972096","MEAN_MOTION":12.80481599,"ECCENTRICITY":0.12781698,"INCLINATION":51.4136,"RA_OF_ASC_NODE":170.397,"ARG_OF_PERICENTER":239.8148,"MEAN_ANOMALY":107.0118,"EPHEMERIS_TYPE":0,"CLASSIFICATION_TYPE":"U","NORAD_CAT_ID":45829,"ELEMENT_SET_NO":999,"REV_AT_EPOCH":25015,"BSTAR":0.0043609848,"MEAN_MOTION_DOT":0.00065096,"MEAN_MOTION_DDOT":0}]
